{
  "norad_id": 47822,
  "name": "STARLINK-2407",
  "history": [
    {
      "epoch": "2026-03-28T14:44:58.346880Z",
      "apogee_km": 476.10626659440186,
      "perigee_km": 474.2298316719489,
      "latitude_deg": -5.7527026389544975e-05,
      "longitude_deg": 120.10996720830518,
      "height_km": 475.77373784575593,
      "semi_major_axis_km": 6853.305049133175,
      "eccentricity": 0.0001369,
      "inclination_deg": 53.1599,
      "raan_deg": 167.3856,
      "arg_perigee_deg": 71.844,
      "mean_anomaly_deg": 288.2709,
      "mean_motion_rev_day": 15.30215748
    }
  ]
}